SAUDISAT 1C (SO-50)     
1 27607U 02058C   26173.21270606  .00000697  00000+0  99777-4 0  9994
2 27607  64.5516 113.4366 0075144 261.5322  97.7262 14.83055677265201
SAUDISAT 2              
1 28371U 04025F   26173.24933664  .00000172  00000+0  49541-4 0  9994
2 28371  98.5507 173.3621 0023460 281.8761  77.9805 14.56686187166481
SAUDISAT 3              
1 31118U 07012B   26173.42685232  .00000175  00000+0  36485-4 0  9997
2 31118  98.1457 123.8310 0013965 206.1871 153.8631 14.71427993 28517
PISAT                   
1 41784U 16059B   26173.25267590  .00000641  00000+0  11682-3 0  9991
2 41784  97.8178 173.4878 0028802 186.3495 173.7350 14.68990340520489
FLYING LAPTOP           
1 42831U 17042G   26173.85136763  .00003026  00000+0  23950-3 0  9992
2 42831  97.4715 329.1672 0019823 103.5162 256.8273 15.01178099487300
SALSAT                  
1 46495U 20068K   26173.31277948  .00005705  00000+0  20010-3 0  9996
2 46495  97.8856 176.6896 0007816 286.6046  73.4334 15.29860164316141
