OBJECT_NAME,OBJECT_ID,EPOCH,MEAN_MOTION,ECCENTRICITY,INCLINATION,RA_OF_ASC_NODE,ARG_OF_PERICENTER,MEAN_ANOMALY,EPHEMERIS_TYPE,CLASSIFICATION_TYPE,NORAD_CAT_ID,ELEMENT_SET_NO,REV_AT_EPOCH,BSTAR,MEAN_MOTION_DOT,MEAN_MOTION_DDOT
SAUDISAT 1C (SO-50),2002-058C,2026-06-22T05:06:17.803584,14.83055677,.00751442,64.5516,113.4366,261.5322,97.7262,0,U,27607,999,26520,.99776982E-4,.697E-5,0
SAUDISAT 2,2004-025F,2026-06-22T05:59:02.685696,14.56686187,.00234606,98.5507,173.3621,281.8761,77.9805,0,U,28371,999,16648,.49541273E-4,.172E-5,0
SAUDISAT 3,2007-012B,2026-06-22T10:14:40.040448,14.71427993,.00139659,98.1457,123.8310,206.1871,153.8631,0,U,31118,999,2851,.36485083E-4,.175E-5,0
PISAT,2016-059B,2026-06-22T06:03:51.197760,14.68990340,.00288029,97.8178,173.4878,186.3495,173.7350,0,U,41784,999,52048,.11682461E-3,.641E-5,0
FLYING LAPTOP,2017-042G,2026-06-22T20:25:58.163232,15.01178099,.00198232,97.4715,329.1672,103.5162,256.8273,0,U,42831,999,48730,.23950464E-3,.3026E-4,0
SALSAT,2020-068K,2026-06-22T07:30:24.147072,15.29860164,.0007816,97.8856,176.6896,286.6046,73.4334,0,U,46495,999,31614,.20010299E-3,.5705E-4,0
